NORAD_CAT_ID,OBJECT_NAME,OBJECT_TYPE,EPOCH,MEAN_MOTION,ECCENTRICITY,INCLINATION,RA_OF_ASC_NODE,ARG_OF_PERICENTER,MEAN_ANOMALY,BSTAR,MEAN_MOTION_DOT,MEAN_MOTION_DDOT,TLE_LINE0,TLE_LINE1,TLE_LINE2,SEMIMAJOR_AXIS,PERIOD,APOGEE,PERIGEE,DECAYED
53156.0,STARLINK-4087,PAYLOAD,2022-12-24 08:02:18,15.08842848,0.0002169,53.219,22.5311,36.3626,323.7513,0.00016883,2.4e-05,0.0,0 STARLINK-4087,1 53156U 22083AA  22358.33493899  .00002400  00000-0  16883-3 0  9998,2 53156  53.2190  22.5311 0002169  36.3626 323.7513 15.08842848 25155,6917.871999999999,95.437,541.237,538.236,0.0
53156.0,STARLINK-4087,PAYLOAD,2022-12-25 01:31:33,15.08837961,0.0002169,53.2186,19.2613,32.1872,327.9252,0.00014175,1.968e-05,0.0,0 STARLINK-4087,1 53156U 22083AA  22359.06358328  .00001968  00000-0  14175-3 0  9996,2 53156  53.2186  19.2613 0002169  32.1872 327.9252 15.08837961 25263,6917.887,95.438,541.252,538.251,0.0
53156.0,STARLINK-4087,PAYLOAD,2022-12-25 07:53:06,15.08833928,0.00022,53.219,18.0716,34.0288,326.0845,0.00010313,1.353e-05,0.0,0 STARLINK-4087,1 53156U 22083AA  22359.32854822  .00001353  00000-0  10313-3 0  9993,2 53156  53.2190  18.0716 0002200  34.0288 326.0845 15.08833928 24678,6917.899,95.438,541.286,538.242,0.0
53156.0,STARLINK-4087,PAYLOAD,2022-12-25 19:00:49,15.08825231,0.0002247,53.2186,15.9904,33.5217,326.5917,-7.0685e-06,-4.01e-06,0.0,0 STARLINK-4087,1 53156U 22083AA  22359.79223934 -.00000401  00000-0 -70685-5 0  9993,2 53156  53.2186  15.9904 0002247  33.5217 326.5917 15.08825231 25376,6917.926,95.438,541.345,538.236,0.0
53156.0,STARLINK-4087,PAYLOAD,2022-12-26 10:54:39,15.08842372,0.0002303,53.218,13.0166,28.5906,331.5212,2.8781e-05,1.7e-06,0.0,0 STARLINK-4087,1 53156U 22083AA  22360.45462907  .00000170  00000-0  28781-4 0  9993,2 53156  53.2180  13.0166 0002303  28.5906 331.5212 15.08842372 25471,6917.873000000001,95.437,541.331,538.145,0.0
53156.0,STARLINK-4087,PAYLOAD,2022-12-27 09:10:03,15.08853407,0.0002233,53.2185,8.8527,34.3478,325.7659,5.4843e-05,5.85e-06,0.0,0 STARLINK-4087,1 53156U 22083AA  22361.38198112  .00000585  00000-0  54843-4 0  9998,2 53156  53.2185   8.8527 0002233  34.3478 325.7659 15.08853407 25617,6917.839,95.437,541.249,538.16,0.0
53156.0,STARLINK-4087,PAYLOAD,2022-12-27 10:45:26,15.0885468,0.0002227,53.2186,8.5554,36.8613,323.2531,6.5632e-05,7.57e-06,0.0,0 STARLINK-4087,1 53156U 22083AA  22361.44822024  .00000757  00000-0  65632-4 0  9990,2 53156  53.2186   8.5554 0002227  36.8613 323.2531 15.08854680 24992,6917.8359999999975,95.437,541.241,538.16,0.0
53156.0,STARLINK-4087,PAYLOAD,2022-12-27 17:06:58,15.088521300000002,0.0002291,53.2188,7.3661,35.3464,324.768,0.0002855,4.26e-05,0.0,0 STARLINK-4087,1 53156U 22083AA  22361.71317762  .00004260  00000-0  28550-3 0  9998,2 53156  53.2188   7.3661 0002291  35.3464 324.7680 15.08852130 25034,6917.843000000003,95.437,541.293,538.123,0.0
53156.0,STARLINK-4087,PAYLOAD,2022-12-28 01:03:54,15.08855016,0.0002328,53.2184,5.8791,36.9384,323.1768,0.00035211,5.322e-05,0.0,0 STARLINK-4087,1 53156U 22083AA  22362.04438067  .00005322  00000-0  35211-3 0  9999,2 53156  53.2184   5.8791 0002328  36.9384 323.1768 15.08855016 25087,6917.834,95.437,541.31,538.089,0.0
53156.0,STARLINK-4087,PAYLOAD,2022-12-29 00:54:41,15.08840397,0.0002203,53.219,1.4189,34.9276,325.186,-0.00010324,-1.931e-05,0.0,0 STARLINK-4087,1 53156U 22083AA  22363.03798441 -.00001931  00000-0 -10324-3 0  9996,2 53156  53.2190   1.4189 0002203  34.9276 325.1860 15.08840397 25864,6917.879,95.438,541.268,538.22,0.0
53156.0,STARLINK-4087,PAYLOAD,2022-12-29 08:51:38,15.0882669,0.0002315,53.219,359.9321,34.4096,325.7046,-0.00027076,-4.593e-05,0.0,0 STARLINK-4087,1 53156U 22083AA  22363.36919290 -.00004593  00000-0 -27076-3 0  9998,2 53156  53.2190 359.9321 0002315  34.4096 325.7046 15.08826690 25910,6917.920999999999,95.438,541.388,538.185,0.0
53156.0,STARLINK-4087,PAYLOAD,2022-12-29 10:27:01,15.08823619,0.0002301,53.219,359.635,34.417,325.6971,-0.00030419,-5.124e-05,0.0,0 STARLINK-4087,1 53156U 22083AA  22363.43543498 -.00005124  00000-0 -30419-3 0  9995,2 53156  53.2190 359.6350 0002301  34.4170 325.6971 15.08823619 25292,6917.93,95.439,541.387,538.2040000000002,0.0
53156.0,STARLINK-4087,PAYLOAD,2022-12-30 08:42:25,15.08837399,0.00026,53.2188,355.4718,53.9318,306.1915,9.2549e-05,1.185e-05,0.0,0 STARLINK-4087,1 53156U 22083AA  22364.36279730  .00001185  00000-0  92549-4 0  9997,2 53156  53.2188 355.4718 0002600  53.9318 306.1915 15.08837399 26061,6917.888000000001,95.438,541.552,537.955,0.0
53156.0,STARLINK-4087,PAYLOAD,2022-12-30 23:00:53,15.08847127,0.000225,53.2189,352.795,35.0776,325.0364,0.00042071,6.415e-05,0.0,0 STARLINK-4087,1 53156U 22083AA  22364.95894767  .00006415  00000-0  42071-3 0  9990,2 53156  53.2189 352.7950 0002250  35.0776 325.0364 15.08847127 26158,6917.859,95.437,541.28,538.1669999999998,0.0
53156.0,STARLINK-4087,PAYLOAD,2022-12-31 11:43:58,15.08866801,0.0002242,53.2179,350.4175,36.4384,323.676,0.0007065999999999,0.00010984,0.0,0 STARLINK-4087,1 53156U 22083AA  22365.48886701  .00010984  00000-0  70660-3 0  9999,2 53156  53.2179 350.4175 0002242  36.4384 323.6760 15.08866801 25605,6917.7980000000025,95.436,541.214,538.112,0.0
53156.0,STARLINK-4087,PAYLOAD,2022-12-31 16:30:07,15.08864876,0.0002162,53.2177,349.5237,36.0799,324.0339,0.00027712,4.128e-05,0.0,0 STARLINK-4087,1 53156U 22083AA  22365.68758423  .00004128  00000-0  27712-3 0  9993,2 53156  53.2177 349.5237 0002162  36.0799 324.0339 15.08864876 25638,6917.804,95.436,541.165,538.174,0.0
53156.0,STARLINK-4087,PAYLOAD,2023-01-01 05:13:12,15.0884742,0.0001825,53.2178,347.1457,29.4767,330.6328,-4.9845e-05,-1.082e-05,0.0,0 STARLINK-4087,1 53156U 22083AA  23001.21750363 -.00001082  00000-0 -49845-4 0  9995,2 53156  53.2178 347.1457 0001825  29.4767 330.6328 15.08847420 26349,6917.858,95.437,540.985,538.46,0.0
53156.0,STARLINK-4087,PAYLOAD,2023-01-02 05:04:00,15.08836477,0.0002272,53.22,342.6886,34.5057,325.6083,0.00031046,4.656e-05,0.0,0 STARLINK-4087,1 53156U 22083AA  23002.21111498  .00004656  00000-0  31046-3 0  9997,2 53156  53.2200 342.6886 0002272  34.5057 325.6083 15.08836477 26495,6917.891,95.438,541.328,538.184,0.0
53156.0,STARLINK-4087,PAYLOAD,2023-01-02 08:14:46,15.08843619,0.0002305,53.2179,342.0918,37.3639,322.7513,0.0002844,4.241e-05,0.0,0 STARLINK-4087,1 53156U 22083AA  23002.34359248  .00004241  00000-0  28440-3 0  9992,2 53156  53.2179 342.0918 0002305  37.3639 322.7513 15.08843619 25888,6917.869000000002,95.437,541.3290000000002,538.14,0.0
53156.0,STARLINK-4087,PAYLOAD,2023-01-02 22:33:14,15.08848984,0.000218,53.2207,339.4168,47.9971,312.1206,0.00026555,3.942e-05,0.0,0 STARLINK-4087,1 53156U 22083AA  23002.93975150  .00003942  00000-0  26555-3 0  9995,2 53156  53.2207 339.4168 0002180  47.9971 312.1206 15.08848984 25976,6917.853,95.437,541.226,538.21,0.0
53156.0,STARLINK-4087,PAYLOAD,2023-01-03 09:40:57,15.08837398,0.0002214,53.2179,337.3333,36.0515,324.0626,0.0002296999999999,3.369e-05,0.0,0 STARLINK-4087,1 53156U 22083AA  23003.40343814  .00003369  00000-0  22970-3 0  9994,2 53156  53.2179 337.3333 0002214  36.0515 324.0626 15.08837398 26679,6917.888000000001,95.438,541.285,538.222,0.0
53156.0,STARLINK-4087,PAYLOAD,2023-01-04 14:17:53,15.08837695,0.0002177999999999,53.2189,331.9797,35.9454,324.1684,7.2683e-05,8.69e-06,0.0,0 STARLINK-4087,1 53156U 22083AA  23004.59576048  .00000869  00000-0  72683-4 0  9991,2 53156  53.2189 331.9797 0002178  35.9454 324.1684 15.08837695 26229,6917.887,95.438,541.259,538.246,0.0
53156.0,STARLINK-4087,PAYLOAD,2023-01-04 22:14:49,15.08827167,0.0002024,53.2184,330.4943,34.7725,325.3399,-1.7477e-06,-3.16e-06,0.0,0 STARLINK-4087,1 53156U 22083AA  23004.92696643 -.00000316  00000-0 -17477-5 0  9992,2 53156  53.2184 330.4943 0002024  34.7725 325.3399 15.08827167 26273,6917.92,95.438,541.185,538.384,0.0
53156.0,STARLINK-4087,PAYLOAD,2023-01-05 07:47:08,15.08839514,0.0002036,53.2184,328.7107,41.1386,318.9759,0.0003458999999999,5.221e-05,0.0,0 STARLINK-4087,1 53156U 22083AA  23005.32440487  .00005221  00000-0  34590-3 0  9991,2 53156  53.2184 328.7107 0002036  41.1386 318.9759 15.08839514 26337,6917.882,95.438,541.155,538.3380000000002,0.0
53156.0,STARLINK-4087,PAYLOAD,2023-01-05 14:08:41,15.08827552,0.0002222,53.2184,327.5202,44.5379,315.5792,6.0155e-05,6.69e-06,0.0,0 STARLINK-4087,1 53156U 22083AA  23005.58937128  .00000669  00000-0  60155-4 0  9990,2 53156  53.2184 327.5202 0002222  44.5379 315.5792 15.08827552 26379,6917.918000000002,95.438,541.321,538.246,0.0
53156.0,STARLINK-4087,PAYLOAD,2023-01-06 07:37:56,15.0884353,0.0001784,53.2178,324.2492,42.3844,317.7286,0.00056989,8.794e-05,0.0,0 STARLINK-4087,1 53156U 22083AA  23006.31801139  .00008794  00000-0  56989-3 0  9990,2 53156  53.2178 324.2492 0001784  42.3844 317.7286 15.08843530 27111,6917.87,95.437,540.969,538.5,0.0
53156.0,STARLINK-4087,PAYLOAD,2023-01-06 21:56:24,15.08837676,0.0001686,53.2179,321.5729,53.8622,306.2526,0.00030348,4.545e-05,0.0,0 STARLINK-4087,1 53156U 22083AA  23006.91417593  .00004545  00000-0  30348-3 0  9994,2 53156  53.2179 321.5729 0001686  53.8622 306.2526 15.08837676 26570,6917.887,95.438,540.919,538.586,0.0
53156.0,STARLINK-4087,PAYLOAD,2023-01-07 05:53:20,15.08849948,0.0001726,53.2173,320.0863,49.6821,310.4322,0.00064265,9.957e-05,0.0,0 STARLINK-4087,1 53156U 22083AA  23007.24537431  .00009957  00000-0  64265-3 0  9992,2 53156  53.2173 320.0863 0001726  49.6821 310.4322 15.08849948 26628,6917.85,95.437,540.909,538.521,0.0
53156.0,STARLINK-4087,PAYLOAD,2023-01-07 07:28:43,15.08853009,0.0001675999999999,53.2174,319.7891,53.9437,306.171,0.00079264,0.00012354,0.0,0 STARLINK-4087,1 53156U 22083AA  23007.31161359  .00012354  00000-0  79264-3 0  9992,2 53156  53.2174 319.7891 0001676  53.9437 306.1710 15.08853009 27267,6917.840999999999,95.437,540.865,538.5459999999998,0.0
